<?xml version="1.0" encoding="UTF-8"?>
<ndm xmlns:xsi="http://www.w3.org/2001/XMLSchema-instance" xsi:noNamespaceSchemaLocation="https://sanaregistry.org/r/ndmxml_unqualified/ndmxml-2.0.0-master-2.0.xsd">
<omm id="CCSDS_OMM_VERS" version="2.0">
<header><CREATION_DATE/><ORIGINATOR/></header><body><segment><metadata><OBJECT_NAME>QIANFAN-97</OBJECT_NAME><OBJECT_ID>2025-233G</OBJECT_ID><CENTER_NAME>EARTH</CENTER_NAME><REF_FRAME>TEME</REF_FRAME><TIME_SYSTEM>UTC</TIME_SYSTEM><MEAN_ELEMENT_THEORY>SGP4</MEAN_ELEMENT_THEORY></metadata><data><meanElements><EPOCH>2025-12-24T16:20:43.540800</EPOCH><MEAN_MOTION>13.60333922</MEAN_MOTION><ECCENTRICITY>.0012081</ECCENTRICITY><INCLINATION>88.9929</INCLINATION><RA_OF_ASC_NODE>60.8892</RA_OF_ASC_NODE><ARG_OF_PERICENTER>8.4137</ARG_OF_PERICENTER><MEAN_ANOMALY>351.7219</MEAN_ANOMALY></meanElements><tleParameters><EPHEMERIS_TYPE>0</EPHEMERIS_TYPE><CLASSIFICATION_TYPE>U</CLASSIFICATION_TYPE><NORAD_CAT_ID>66039</NORAD_CAT_ID><ELEMENT_SET_NO>999</ELEMENT_SET_NO><REV_AT_EPOCH>961</REV_AT_EPOCH><BSTAR>-.30246E+1</BSTAR><MEAN_MOTION_DOT>-.211666E-1</MEAN_MOTION_DOT><MEAN_MOTION_DDOT>0</MEAN_MOTION_DDOT></tleParameters></data></segment></body></omm>
<omm id="CCSDS_OMM_VERS" version="2.0">
<header><CREATION_DATE/><ORIGINATOR/></header><body><segment><metadata><OBJECT_NAME>QIANFAN-98</OBJECT_NAME><OBJECT_ID>2025-233H</OBJECT_ID><CENTER_NAME>EARTH</CENTER_NAME><REF_FRAME>TEME</REF_FRAME><TIME_SYSTEM>UTC</TIME_SYSTEM><MEAN_ELEMENT_THEORY>SGP4</MEAN_ELEMENT_THEORY></metadata><data><meanElements><EPOCH>2025-12-25T02:05:59.097120</EPOCH><MEAN_MOTION>13.79505825</MEAN_MOTION><ECCENTRICITY>.00165825</ECCENTRICITY><INCLINATION>88.9937</INCLINATION><RA_OF_ASC_NODE>60.7577</RA_OF_ASC_NODE><ARG_OF_PERICENTER>14.3416</ARG_OF_PERICENTER><MEAN_ANOMALY>345.8218</MEAN_ANOMALY></meanElements><tleParameters><EPHEMERIS_TYPE>0</EPHEMERIS_TYPE><CLASSIFICATION_TYPE>U</CLASSIFICATION_TYPE><NORAD_CAT_ID>66040</NORAD_CAT_ID><ELEMENT_SET_NO>999</ELEMENT_SET_NO><REV_AT_EPOCH>972</REV_AT_EPOCH><BSTAR>-.18927485E+1</BSTAR><MEAN_MOTION_DOT>-.18123E-1</MEAN_MOTION_DOT><MEAN_MOTION_DDOT>0</MEAN_MOTION_DDOT></tleParameters></data></segment></body></omm>
<omm id="CCSDS_OMM_VERS" version="2.0">
<header><CREATION_DATE/><ORIGINATOR/></header><body><segment><metadata><OBJECT_NAME>QIANFAN-99</OBJECT_NAME><OBJECT_ID>2025-233J</OBJECT_ID><CENTER_NAME>EARTH</CENTER_NAME><REF_FRAME>TEME</REF_FRAME><TIME_SYSTEM>UTC</TIME_SYSTEM><MEAN_ELEMENT_THEORY>SGP4</MEAN_ELEMENT_THEORY></metadata><data><meanElements><EPOCH>2025-12-25T03:13:07.601664</EPOCH><MEAN_MOTION>13.59783738</MEAN_MOTION><ECCENTRICITY>.00119006</ECCENTRICITY><INCLINATION>88.9939</INCLINATION><RA_OF_ASC_NODE>60.8570</RA_OF_ASC_NODE><ARG_OF_PERICENTER>5.0069</ARG_OF_PERICENTER><MEAN_ANOMALY>355.1204</MEAN_ANOMALY></meanElements><tleParameters><EPHEMERIS_TYPE>0</EPHEMERIS_TYPE><CLASSIFICATION_TYPE>U</CLASSIFICATION_TYPE><NORAD_CAT_ID>66041</NORAD_CAT_ID><ELEMENT_SET_NO>999</ELEMENT_SET_NO><REV_AT_EPOCH>967</REV_AT_EPOCH><BSTAR>-.28670338E+1</BSTAR><MEAN_MOTION_DOT>-.1996556E-1</MEAN_MOTION_DOT><MEAN_MOTION_DDOT>0</MEAN_MOTION_DDOT></tleParameters></data></segment></body></omm>
<omm id="CCSDS_OMM_VERS" version="2.0">
<header><CREATION_DATE/><ORIGINATOR/></header><body><segment><metadata><OBJECT_NAME>QIANFAN-100</OBJECT_NAME><OBJECT_ID>2025-233K</OBJECT_ID><CENTER_NAME>EARTH</CENTER_NAME><REF_FRAME>TEME</REF_FRAME><TIME_SYSTEM>UTC</TIME_SYSTEM><MEAN_ELEMENT_THEORY>SGP4</MEAN_ELEMENT_THEORY></metadata><data><meanElements><EPOCH>2025-12-25T00:57:26.207424</EPOCH><MEAN_MOTION>13.71854608</MEAN_MOTION><ECCENTRICITY>.00144265</ECCENTRICITY><INCLINATION>88.9975</INCLINATION><RA_OF_ASC_NODE>60.7909</RA_OF_ASC_NODE><ARG_OF_PERICENTER>13.6428</ARG_OF_PERICENTER><MEAN_ANOMALY>346.5122</MEAN_ANOMALY></meanElements><tleParameters><EPHEMERIS_TYPE>0</EPHEMERIS_TYPE><CLASSIFICATION_TYPE>U</CLASSIFICATION_TYPE><NORAD_CAT_ID>66042</NORAD_CAT_ID><ELEMENT_SET_NO>999</ELEMENT_SET_NO><REV_AT_EPOCH>970</REV_AT_EPOCH><BSTAR>-.24367328E+1</BSTAR><MEAN_MOTION_DOT>-.2059597E-1</MEAN_MOTION_DOT><MEAN_MOTION_DDOT>0</MEAN_MOTION_DDOT></tleParameters></data></segment></body></omm>
<omm id="CCSDS_OMM_VERS" version="2.0">
<header><CREATION_DATE/><ORIGINATOR/></header><body><segment><metadata><OBJECT_NAME>QIANFAN-101</OBJECT_NAME><OBJECT_ID>2025-233L</OBJECT_ID><CENTER_NAME>EARTH</CENTER_NAME><REF_FRAME>TEME</REF_FRAME><TIME_SYSTEM>UTC</TIME_SYSTEM><MEAN_ELEMENT_THEORY>SGP4</MEAN_ELEMENT_THEORY></metadata><data><meanElements><EPOCH>2025-12-25T18:46:01.551360</EPOCH><MEAN_MOTION>14.26683320</MEAN_MOTION><ECCENTRICITY>.0014461</ECCENTRICITY><INCLINATION>88.9949</INCLINATION><RA_OF_ASC_NODE>60.5276</RA_OF_ASC_NODE><ARG_OF_PERICENTER>1.7115</ARG_OF_PERICENTER><MEAN_ANOMALY>358.4126</MEAN_ANOMALY></meanElements><tleParameters><EPHEMERIS_TYPE>0</EPHEMERIS_TYPE><CLASSIFICATION_TYPE>U</CLASSIFICATION_TYPE><NORAD_CAT_ID>66043</NORAD_CAT_ID><ELEMENT_SET_NO>999</ELEMENT_SET_NO><REV_AT_EPOCH>990</REV_AT_EPOCH><BSTAR>.95257E-4</BSTAR><MEAN_MOTION_DOT>.245E-5</MEAN_MOTION_DOT><MEAN_MOTION_DDOT>0</MEAN_MOTION_DDOT></tleParameters></data></segment></body></omm>
<omm id="CCSDS_OMM_VERS" version="2.0">
<header><CREATION_DATE/><ORIGINATOR/></header><body><segment><metadata><OBJECT_NAME>QIANFAN-102</OBJECT_NAME><OBJECT_ID>2025-233M</OBJECT_ID><CENTER_NAME>EARTH</CENTER_NAME><REF_FRAME>TEME</REF_FRAME><TIME_SYSTEM>UTC</TIME_SYSTEM><MEAN_ELEMENT_THEORY>SGP4</MEAN_ELEMENT_THEORY></metadata><data><meanElements><EPOCH>2025-12-25T04:25:49.048608</EPOCH><MEAN_MOTION>13.64412269</MEAN_MOTION><ECCENTRICITY>.0015808</ECCENTRICITY><INCLINATION>88.9952</INCLINATION><RA_OF_ASC_NODE>60.8267</RA_OF_ASC_NODE><ARG_OF_PERICENTER>8.6566</ARG_OF_PERICENTER><MEAN_ANOMALY>351.4863</MEAN_ANOMALY></meanElements><tleParameters><EPHEMERIS_TYPE>0</EPHEMERIS_TYPE><CLASSIFICATION_TYPE>U</CLASSIFICATION_TYPE><NORAD_CAT_ID>66044</NORAD_CAT_ID><ELEMENT_SET_NO>999</ELEMENT_SET_NO><REV_AT_EPOCH>969</REV_AT_EPOCH><BSTAR>-.26526E+1</BSTAR><MEAN_MOTION_DOT>-.1990856E-1</MEAN_MOTION_DOT><MEAN_MOTION_DDOT>0</MEAN_MOTION_DDOT></tleParameters></data></segment></body></omm>
<omm id="CCSDS_OMM_VERS" version="2.0">
<header><CREATION_DATE/><ORIGINATOR/></header><body><segment><metadata><OBJECT_NAME>QIANFAN-103</OBJECT_NAME><OBJECT_ID>2025-233N</OBJECT_ID><CENTER_NAME>EARTH</CENTER_NAME><REF_FRAME>TEME</REF_FRAME><TIME_SYSTEM>UTC</TIME_SYSTEM><MEAN_ELEMENT_THEORY>SGP4</MEAN_ELEMENT_THEORY></metadata><data><meanElements><EPOCH>2025-12-24T23:52:46.303104</EPOCH><MEAN_MOTION>13.61450354</MEAN_MOTION><ECCENTRICITY>.00117979</ECCENTRICITY><INCLINATION>88.9949</INCLINATION><RA_OF_ASC_NODE>60.8724</RA_OF_ASC_NODE><ARG_OF_PERICENTER>3.0556</ARG_OF_PERICENTER><MEAN_ANOMALY>357.0671</MEAN_ANOMALY></meanElements><tleParameters><EPHEMERIS_TYPE>0</EPHEMERIS_TYPE><CLASSIFICATION_TYPE>U</CLASSIFICATION_TYPE><NORAD_CAT_ID>66045</NORAD_CAT_ID><ELEMENT_SET_NO>999</ELEMENT_SET_NO><REV_AT_EPOCH>965</REV_AT_EPOCH><BSTAR>-.26876954E+1</BSTAR><MEAN_MOTION_DOT>-.1906822E-1</MEAN_MOTION_DOT><MEAN_MOTION_DDOT>0</MEAN_MOTION_DDOT></tleParameters></data></segment></body></omm>
<omm id="CCSDS_OMM_VERS" version="2.0">
<header><CREATION_DATE/><ORIGINATOR/></header><body><segment><metadata><OBJECT_NAME>QIANFAN-104</OBJECT_NAME><OBJECT_ID>2025-233P</OBJECT_ID><CENTER_NAME>EARTH</CENTER_NAME><REF_FRAME>TEME</REF_FRAME><TIME_SYSTEM>UTC</TIME_SYSTEM><MEAN_ELEMENT_THEORY>SGP4</MEAN_ELEMENT_THEORY></metadata><data><meanElements><EPOCH>2025-12-24T23:28:02.840160</EPOCH><MEAN_MOTION>13.68045735</MEAN_MOTION><ECCENTRICITY>.00153847</ECCENTRICITY><INCLINATION>88.9955</INCLINATION><RA_OF_ASC_NODE>60.8713</RA_OF_ASC_NODE><ARG_OF_PERICENTER>32.5361</ARG_OF_PERICENTER><MEAN_ANOMALY>327.6745</MEAN_ANOMALY></meanElements><tleParameters><EPHEMERIS_TYPE>0</EPHEMERIS_TYPE><CLASSIFICATION_TYPE>U</CLASSIFICATION_TYPE><NORAD_CAT_ID>66046</NORAD_CAT_ID><ELEMENT_SET_NO>999</ELEMENT_SET_NO><REV_AT_EPOCH>966</REV_AT_EPOCH><BSTAR>-.26585153E+1</BSTAR><MEAN_MOTION_DOT>-.2108129E-1</MEAN_MOTION_DOT><MEAN_MOTION_DDOT>0</MEAN_MOTION_DDOT></tleParameters></data></segment></body></omm>

</ndm>
