QIANFAN-97              
1 66039U 25233G   25358.68105950 -.02116660  00000+0 -30246+1 0  9994
2 66039  88.9929  60.8892 0012081   8.4137 351.7219 13.60333922  9615
QIANFAN-98              
1 66040U 25233H   25359.08748955 -.01812300  00000+0 -18927+1 0  9994
2 66040  88.9937  60.7577 0016582  14.3416 345.8218 13.79505825  9729
QIANFAN-99              
1 66041U 25233J   25359.13411576 -.01996556  00000+0 -28670+1 0  9999
2 66041  88.9939  60.8570 0011900   5.0069 355.1204 13.59783738  9678
QIANFAN-100             
1 66042U 25233K   25359.03988666 -.02059597  00000+0 -24367+1 0  9993
2 66042  88.9975  60.7909 0014426  13.6428 346.5122 13.71854608  9700
QIANFAN-101             
1 66043U 25233L   25359.78196240  .00000245  00000+0  95257-4 0  9997
2 66043  88.9949  60.5276 0014461   1.7115 358.4126 14.26683320  9907
QIANFAN-102             
1 66044U 25233M   25359.18459547 -.01990856  00000+0 -26526+1 0  9992
2 66044  88.9952  60.8267 0015808   8.6566 351.4863 13.64412269  9697
QIANFAN-103             
1 66045U 25233N   25358.99498036 -.01906822  00000+0 -26877+1 0  9996
2 66045  88.9949  60.8724 0011797   3.0556 357.0671 13.61450354  9652
QIANFAN-104             
1 66046U 25233P   25358.97781065 -.02108129  00000+0 -26585+1 0  9993
2 66046  88.9955  60.8713 0015384  32.5361 327.6745 13.68045735  9661
